{"type": "FeatureCollection", "features": [ {"type": "Feature", "properties": {"norad_id": 52912, "name": "GAOFEN-12 03", "group": "resource", "lat": -55.420888468919024, "lon": -109.92106383815963, "alt_km": 638.1041225527597, "timestamp": "2025-12-17T07:00:46.549448+00:00", "meta": {"OBJECT_NAME": "GAOFEN-12 03", "OBJECT_ID": "2022-069A", "EPOCH": "2025-12-16T23:09:05.155200", "MEAN_MOTION": 14.79618094, "ECCENTRICITY": 0.00021044, "INCLINATION": 97.8485, "RA_OF_ASC_NODE": 238.2157, "ARG_OF_PERICENTER": 55.4486, "MEAN_ANOMALY": 304.6924, "EPHEMERIS_TYPE": 0, "CLASSIFICATION_TYPE": "U", "NORAD_CAT_ID": 52912, "ELEMENT_SET_NO": 999, "REV_AT_EPOCH": 18766, "BSTAR": 6.7250738e-05, "MEAN_MOTION_DOT": 4.53e-06, "MEAN_MOTION_DDOT": 0}, "tle": {"line1": "1 52912U 22069A   25350.96464300  .00000453  00000+0  67251-4 0  9991", "line2": "2 52912  97.8485 238.2157 0002104  55.4486 304.6924 14.79618094187664"}}, "geometry": {"type": "Point", "coordinates": [-109.92106383815963, -55.420888468919024]}}, {"type": "Feature", "properties": {"norad_id": 54754, "name": "SWOT", "group": "resource", "lat": 58.76113735798722, "lon": -57.908633521850334, "alt_km": 887.1491575724658, "timestamp": "2025-12-17T07:00:46.549474+00:00", "meta": {"OBJECT_NAME": "SWOT", "OBJECT_ID": "2022-173A", "EPOCH": "2025-12-16T23:51:45.314208", "MEAN_MOTION": 14.00167504, "ECCENTRICITY": 3.703e-05, "INCLINATION": 77.6107, "RA_OF_ASC_NODE": 281.2465, "ARG_OF_PERICENTER": 101.8255, "MEAN_ANOMALY": 258.2939, "EPHEMERIS_TYPE": 0, "CLASSIFICATION_TYPE": "U", "NORAD_CAT_ID": 54754, "ELEMENT_SET_NO": 999, "REV_AT_EPOCH": 15365, "BSTAR": 6.1256742e-05, "MEAN_MOTION_DOT": 8.8e-07, "MEAN_MOTION_DDOT": 0}, "tle": {"line1": "1 54754U 22173A   25350.99427447  .00000088  00000+0  61257-4 0  9991", "line2": "2 54754  77.6107 281.2465 0000370 101.8255 258.2939 14.00167504153651"}}, "geometry": {"type": "Point", "coordinates": [-57.908633521850334, 58.76113735798722]}}, {"type": "Feature", "properties": {"norad_id": 57654, "name": "GAOFEN-12 04", "group": "resource", "lat": 63.783154945877946, "lon": 103.38544380517392, "alt_km": 623.3438640765271, "timestamp": "2025-12-17T07:00:46.549487+00:00", "meta": {"OBJECT_NAME": "GAOFEN-12 04", "OBJECT_ID": "2023-123A", "EPOCH": "2025-12-17T00:00:11.990592", "MEAN_MOTION": 14.79712677, "ECCENTRICITY": 0.00012677, "INCLINATION": 97.9124, "RA_OF_ASC_NODE": 266.6926, "ARG_OF_PERICENTER": 74.8562, "MEAN_ANOMALY": 285.279, "EPHEMERIS_TYPE": 0, "CLASSIFICATION_TYPE": "U", "NORAD_CAT_ID": 57654, "ELEMENT_SET_NO": 999, "REV_AT_EPOCH": 12568, "BSTAR": 0.00016443872, "MEAN_MOTION_DOT": 1.184e-05, "MEAN_MOTION_DDOT": 0}, "tle": {"line1": "1 57654U 23123A   25351.00013878  .00001184  00000+0  16444-3 0  9996", "line2": "2 57654  97.9124 266.6926 0001267  74.8562 285.2790 14.79712677125682"}}, "geometry": {"type": "Point", "coordinates": [103.38544380517392, 63.783154945877946]}}, {"type": "Feature", "properties": {"norad_id": 59065, "name": "PARS 1", "group": "resource", "lat": 73.28293952359397, "lon": -63.557207716105516, "alt_km": 427.8697787236797, "timestamp": "2025-12-17T07:00:46.549498+00:00", "meta": {"OBJECT_NAME": "PARS 1", "OBJECT_ID": "2024-039Q", "EPOCH": "2025-12-16T22:53:51.154656", "MEAN_MOTION": 15.41071052, "ECCENTRICITY": 0.0012319, "INCLINATION": 97.4631, "RA_OF_ASC_NODE": 321.9766, "ARG_OF_PERICENTER": 59.5814, "MEAN_ANOMALY": 300.6648, "EPHEMERIS_TYPE": 0, "CLASSIFICATION_TYPE": "U", "NORAD_CAT_ID": 59065, "ELEMENT_SET_NO": 999, "REV_AT_EPOCH": 10053, "BSTAR": 0.0002460756, "MEAN_MOTION_DOT": 0.00010111, "MEAN_MOTION_DDOT": 0}, "tle": {"line1": "1 59065U 24039Q   25350.95406429  .00010111  00000+0  24608-3 0  9993", "line2": "2 59065  97.4631 321.9766 0012319  59.5814 300.6648 15.41071052100531"}}, "geometry": {"type": "Point", "coordinates": [-63.557207716105516, 73.28293952359397]}}, {"type": "Feature", "properties": {"norad_id": 59371, "name": "RESURS-P 4", "group": "resource", "lat": 69.61812263312682, "lon": -82.52289789841751, "alt_km": 461.96748753758766, "timestamp": "2025-12-17T07:00:46.549509+00:00", "meta": {"OBJECT_NAME": "RESURS-P 4", "OBJECT_ID": "2024-061A", "EPOCH": "2025-12-17T00:26:05.180064", "MEAN_MOTION": 15.32119975, "ECCENTRICITY": 0.00012032, "INCLINATION": 97.2546, "RA_OF_ASC_NODE": 297.2602, "ARG_OF_PERICENTER": 55.8338, "MEAN_ANOMALY": 304.3018, "EPHEMERIS_TYPE": 0, "CLASSIFICATION_TYPE": "U", "NORAD_CAT_ID": 59371, "ELEMENT_SET_NO": 999, "REV_AT_EPOCH": 9586, "BSTAR": 0.00010874319, "MEAN_MOTION_DOT": 3.296e-05, "MEAN_MOTION_DDOT": 0}, "tle": {"line1": "1 59371U 24061A   25351.01811551  .00003296  00000+0  10874-3 0  9998", "line2": "2 59371  97.2546 297.2602 0001203  55.8338 304.3018 15.32119975 95866"}}, "geometry": {"type": "Point", "coordinates": [-82.52289789841751, 69.61812263312682]}}, {"type": "Feature", "properties": {"norad_id": 59625, "name": "LEGION 1", "group": "resource", "lat": 40.313444183895626, "lon": 59.4553744750441, "alt_km": 513.8448157488056, "timestamp": "2025-12-17T07:00:46.549519+00:00", "meta": {"OBJECT_NAME": "LEGION 1", "OBJECT_ID": "2024-081A", "EPOCH": "2025-12-16T22:54:57.791520", "MEAN_MOTION": 15.16522729, "ECCENTRICITY": 0.00037381, "INCLINATION": 97.5215, "RA_OF_ASC_NODE": 65.5575, "ARG_OF_PERICENTER": 298.8239, "MEAN_ANOMALY": 61.2619, "EPHEMERIS_TYPE": 0, "CLASSIFICATION_TYPE": "U", "NORAD_CAT_ID": 59625, "ELEMENT_SET_NO": 999, "REV_AT_EPOCH": 8991, "BSTAR": 0.00022598446, "MEAN_MOTION_DOT": 4.338e-05, "MEAN_MOTION_DDOT": 0}, "tle": {"line1": "1 59625U 24081A   25350.95483555  .00004338  00000+0  22598-3 0  9997", "line2": "2 59625  97.5215  65.5575 0003738 298.8239  61.2619 15.16522729 89915"}}, "geometry": {"type": "Point", "coordinates": [59.4553744750441, 40.313444183895626]}}, {"type": "Feature", "properties": {"norad_id": 59626, "name": "LEGION 2", "group": "resource", "lat": -40.37989085434242, "lon": -120.47256709752368, "alt_km": 520.6096459767596, "timestamp": "2025-12-17T07:00:46.549530+00:00", "meta": {"OBJECT_NAME": "LEGION 2", "OBJECT_ID": "2024-081B", "EPOCH": "2025-12-16T22:07:27.602400", "MEAN_MOTION": 15.16534922, "ECCENTRICITY": 0.0005624, "INCLINATION": 97.5218, "RA_OF_ASC_NODE": 65.6123, "ARG_OF_PERICENTER": 275.7057, "MEAN_ANOMALY": 84.3535, "EPHEMERIS_TYPE": 0, "CLASSIFICATION_TYPE": "U", "NORAD_CAT_ID": 59626, "ELEMENT_SET_NO": 999, "REV_AT_EPOCH": 8991, "BSTAR": 0.00019821792, "MEAN_MOTION_DOT": 3.799e-05, "MEAN_MOTION_DDOT": 0}, "tle": {"line1": "1 59626U 24081B   25350.92184725  .00003799  00000+0  19822-3 0  9998", "line2": "2 59626  97.5218  65.6123 0005624 275.7057  84.3535 15.16534922 89918"}}, "geometry": {"type": "Point", "coordinates": [-120.47256709752368, -40.37989085434242]}}, {"type": "Feature", "properties": {"norad_id": 60182, "name": "ALOS-4 (DAICHI-4)", "group": "resource", "lat": -8.274488296732681, "lon": 87.23486421533741, "alt_km": 635.2753848412685, "timestamp": "2025-12-17T07:00:46.549540+00:00", "meta": {"OBJECT_NAME": "ALOS-4 (DAICHI-4)", "OBJECT_ID": "2024-123A", "EPOCH": "2025-12-16T22:56:04.911360", "MEAN_MOTION": 14.79477844, "ECCENTRICITY": 0.00013999, "INCLINATION": 97.9225, "RA_OF_ASC_NODE": 85.7427, "ARG_OF_PERICENTER": 99.1223, "MEAN_ANOMALY": 261.0147, "EPHEMERIS_TYPE": 0, "CLASSIFICATION_TYPE": "U", "NORAD_CAT_ID": 60182, "ELEMENT_SET_NO": 999, "REV_AT_EPOCH": 7893, "BSTAR": 0.00025137573, "MEAN_MOTION_DOT": 1.827e-05, "MEAN_MOTION_DDOT": 0}, "tle": {"line1": "1 60182U 24123A   25350.95561240  .00001827  00000+0  25138-3 0  9995", "line2": "2 60182  97.9225  85.7427 0001399  99.1223 261.0147 14.79477844 78937"}}, "geometry": {"type": "Point", "coordinates": [87.23486421533741, -8.274488296732681]}}, {"type": "Feature", "properties": {"norad_id": 60452, "name": "LEGION 3", "group": "resource", "lat": -38.227360758575834, "lon": -126.29045920607477, "alt_km": 519.2693066046559, "timestamp": "2025-12-17T07:00:46.549550+00:00", "meta": {"OBJECT_NAME": "LEGION 3", "OBJECT_ID": "2024-146A", "EPOCH": "2025-12-16T21:47:30.305760", "MEAN_MOTION": 15.15807517, "ECCENTRICITY": 0.00153593, "INCLINATION": 45.0023, "RA_OF_ASC_NODE": 287.7861, "ARG_OF_PERICENTER": 221.204, "MEAN_ANOMALY": 138.768, "EPHEMERIS_TYPE": 0, "CLASSIFICATION_TYPE": "U", "NORAD_CAT_ID": 60452, "ELEMENT_SET_NO": 999, "REV_AT_EPOCH": 7436, "BSTAR": 0.00023264726, "MEAN_MOTION_DOT": 4.268e-05, "MEAN_MOTION_DDOT": 0}, "tle": {"line1": "1 60452U 24146A   25350.90798965  .00004268  00000+0  23265-3 0  9992", "line2": "2 60452  45.0023 287.7861 0015359 221.2040 138.7680 15.15807517 74369"}}, "geometry": {"type": "Point", "coordinates": [-126.29045920607477, -38.227360758575834]}}, {"type": "Feature", "properties": {"norad_id": 60453, "name": "LEGION 4", "group": "resource", "lat": -39.29040816264211, "lon": -37.35850508003301, "alt_km": 516.8566770274629, "timestamp": "2025-12-17T07:00:46.549561+00:00", "meta": {"OBJECT_NAME": "LEGION 4", "OBJECT_ID": "2024-146B", "EPOCH": "2025-12-16T18:38:20.196960", "MEAN_MOTION": 15.15869065, "ECCENTRICITY": 0.00091202, "INCLINATION": 45.04, "RA_OF_ASC_NODE": 20.2543, "ARG_OF_PERICENTER": 331.9551, "MEAN_ANOMALY": 28.0836, "EPHEMERIS_TYPE": 0, "CLASSIFICATION_TYPE": "U", "NORAD_CAT_ID": 60453, "ELEMENT_SET_NO": 999, "REV_AT_EPOCH": 7319, "BSTAR": 0.00022142598, "MEAN_MOTION_DOT": 4.049e-05, "MEAN_MOTION_DDOT": 0}, "tle": {"line1": "1 60453U 24146B   25350.77662265  .00004049  00000+0  22143-3 0  9992", "line2": "2 60453  45.0400  20.2543 0009120 331.9551  28.0836 15.15869065 73191"}}, "geometry": {"type": "Point", "coordinates": [-37.35850508003301, -39.29040816264211]}}]}